0 FENGYUN 1C DEB
1 31085U 99025BGF 13281.48155333  .00000185  00000-0  89631-4 0  8487
2 31085 098.8012 357.0689 0090126 008.3609 057.7485 14.27623593342747
0 FENGYUN 1C DEB
1 31085U 99025BGF 13284.01551104  .00000241  00000-0  11144-3 0  8492
2 31085 098.8013 359.6209 0090001 000.9707 120.9100 14.27625580343109
0 FENGYUN 1C DEB
1 31085U 99025BGF 13286.17476825  .00000221  00000-0  10356-3 0  8501
2 31085 098.8013 001.7957 0089892 354.6667 058.3331 14.27626699343410
0 FENGYUN 1C DEB
1 31085U 99025BGF 13288.20878042  .00000370  00000-0  16179-3 0  8519
2 31085 098.8008 003.8444 0089773 348.7342 072.0670 14.27628087343704
0 FENGYUN 1C DEB
1 31085U 99025BGF 13290.45061694  .00000304  00000-0  13596-3 0  8524
2 31085 098.8003 006.1025 0089666 342.1453 073.9689 14.27629896344027
0 FENGYUN 1C DEB
1 31085U 99025BGF 13292.48501398  .00000313  00000-0  13971-3 0  8537
2 31085 098.8000 008.1514 0089596 336.1721 089.7443 14.27631205344314
0 FENGYUN 1C DEB
1 31085U 99025BGF 13295.01920259  .00000347  00000-0  15292-3 0  8546
2 31085 098.7998 010.7034 0089501 328.7311 154.2107 14.27633103344676
